STARLINK-30540          
1 58002U 23153M   26067.99805799 -.00004302  00000+0 -15087-3 0  9990
2 58002  43.0033  70.6829 0000734 215.1985 144.8818 15.26723101134692
FLOCK 4G-24             
1 62637U 25009AE  26068.72509072  .00010513  00000+0  38996-3 0  9991
2 62637  97.4061 151.5140 0001802 280.2808  79.8228 15.27784978 63732
